{
  "type": "FeatureCollection",
  "features": [
    {
      "type": "Feature",
      "properties": {
        "norad_id": 66174,
        "name": "HTV-X1",
        "group": "stations",
        "lat": 41.74277225499726,
        "lon": -179.58568335272832,
        "alt_km": 414.41832487504416,
        "timestamp": "2025-12-14T03:55:51.571702+00:00",
        "meta_object_name": "HTV-X1",
        "meta_object_id": "2025-241A",
        "meta_epoch": "2025-12-13T02:54:59.414400",
        "meta_mean_motion": 15.49559837,
        "meta_eccentricity": 0.00032382,
        "meta_inclination": 51.6303,
        "meta_ra_of_asc_node": 140.5889,
        "meta_arg_of_pericenter": 241.9684,
        "meta_mean_anomaly": 118.0978,
        "meta_ephemeris_type": 0,
        "meta_classification_type": "U",
        "meta_norad_cat_id": 66174,
        "meta_element_set_no": 999,
        "meta_rev_at_epoch": 51,
        "meta_bstar": 0.00029450217,
        "meta_mean_motion_dot": 0.0001613,
        "meta_mean_motion_ddot": 0,
        "tle_line1": "1 66174U 25241A   25347.12152100  .00016130  00000+0  29450-3 0  9994",
        "tle_line2": "2 66174  51.6303 140.5889 0003238 241.9684 118.0978 15.49559837   515"
      },
      "geometry": {
        "type": "Point",
        "coordinates": [
          -179.58568335272832,
          41.74277225499726
        ]
      }
    },
    {
      "type": "Feature",
      "properties": {
        "norad_id": 66515,
        "name": "SZ-21 MODULE",
        "group": "stations",
        "lat": 19.162610663512456,
        "lon": 164.19149840663505,
        "alt_km": 379.0542504530449,
        "timestamp": "2025-12-14T03:55:51.571712+00:00",
        "meta_object_name": "SZ-21 MODULE",
        "meta_object_id": "2025-246C",
        "meta_epoch": "2025-12-13T05:48:56.217312",
        "meta_mean_motion": 15.62521016,
        "meta_eccentricity": 0.00062862,
        "meta_inclination": 41.4775,
        "meta_ra_of_asc_node": 12.9802,
        "meta_arg_of_pericenter": 263.0797,
        "meta_mean_anomaly": 96.9328,
        "meta_ephemeris_type": 0,
        "meta_classification_type": "U",
        "meta_norad_cat_id": 66515,
        "meta_element_set_no": 999,
        "meta_rev_at_epoch": 452,
        "meta_bstar": 0.00043386364,
        "meta_mean_motion_dot": 0.00039667,
        "meta_mean_motion_ddot": 0,
        "tle_line1": "1 66515U 25246C   25347.24231733  .00039667  00000+0  43386-3 0  9995",
        "tle_line2": "2 66515  41.4775  12.9802 0006286 263.0797  96.9328 15.62521016  4528"
      },
      "geometry": {
        "type": "Point",
        "coordinates": [
          164.19149840663505,
          19.162610663512456
        ]
      }
    },
    {
      "type": "Feature",
      "properties": {
        "norad_id": 66645,
        "name": "SHENZHOU-22",
        "group": "stations",
        "lat": -27.870148494061674,
        "lon": -135.15522780144448,
        "alt_km": 397.7456098387902,
        "timestamp": "2025-12-14T03:55:51.571722+00:00",
        "meta_object_name": "SHENZHOU-22",
        "meta_object_id": "2025-272A",
        "meta_epoch": "2025-12-13T06:59:15.159552",
        "meta_mean_motion": 15.59202655,
        "meta_eccentricity": 0.00082357,
        "meta_inclination": 41.4684,
        "meta_ra_of_asc_node": 13.3607,
        "meta_arg_of_pericenter": 35.4193,
        "meta_mean_anomaly": 324.7191,
        "meta_ephemeris_type": 0,
        "meta_classification_type": "U",
        "meta_norad_cat_id": 66645,
        "meta_element_set_no": 999,
        "meta_rev_at_epoch": 26357,
        "meta_bstar": 0.00037863929,
        "meta_mean_motion_dot": 0.00030374,
        "meta_mean_motion_ddot": 0,
        "tle_line1": "1 66645U 25272A   25347.29114768  .00030374  00000+0  37864-3 0  9991",
        "tle_line2": "2 66645  41.4684  13.3607 0008235  35.4193 324.7191 15.59202655263579"
      },
      "geometry": {
        "type": "Point",
        "coordinates": [
          -135.15522780144448,
          -27.870148494061674
        ]
      }
    },
    {
      "type": "Feature",
      "properties": {
        "norad_id": 66664,
        "name": "SOYUZ-MS 28",
        "group": "stations",
        "lat": 41.74277333027735,
        "lon": -179.58568119074042,
        "alt_km": 414.41832471987163,
        "timestamp": "2025-12-14T03:55:51.571732+00:00",
        "meta_object_name": "SOYUZ-MS 28",
        "meta_object_id": "2025-275A",
        "meta_epoch": "2025-12-13T02:54:59.414400",
        "meta_mean_motion": 15.49559837,
        "meta_eccentricity": 0.00032382,
        "meta_inclination": 51.6303,
        "meta_ra_of_asc_node": 140.5889,
        "meta_arg_of_pericenter": 241.9684,
        "meta_mean_anomaly": 118.0978,
        "meta_ephemeris_type": 0,
        "meta_classification_type": "U",
        "meta_norad_cat_id": 66664,
        "meta_element_set_no": 999,
        "meta_rev_at_epoch": 128,
        "meta_bstar": 0.00029450217,
        "meta_mean_motion_dot": 0.0001613,
        "meta_mean_motion_ddot": 0,
        "tle_line1": "1 66664U 25275A   25347.12152100  .00016130  00000+0  29450-3 0  9995",
        "tle_line2": "2 66664  51.6303 140.5889 0003238 241.9684 118.0978 15.49559837  1284"
      },
      "geometry": {
        "type": "Point",
        "coordinates": [
          -179.58568119074042,
          41.74277333027735
        ]
      }
    },
    {
      "type": "Feature",
      "properties": {
        "norad_id": 66906,
        "name": "1998-067XS",
        "group": "stations",
        "lat": 51.50746048252502,
        "lon": -129.75432937939033,
        "alt_km": 408.69118093342877,
        "timestamp": "2025-12-14T03:55:51.571744+00:00",
        "meta_object_name": "1998-067XS",
        "meta_object_id": "1998-067XS",
        "meta_epoch": "2025-12-12T17:30:10.785600",
        "meta_mean_motion": 15.50562979,
        "meta_eccentricity": 0.00036025,
        "meta_inclination": 51.6293,
        "meta_ra_of_asc_node": 142.4703,
        "meta_arg_of_pericenter": 202.1444,
        "meta_mean_anomaly": 157.939,
        "meta_ephemeris_type": 0,
        "meta_classification_type": "U",
        "meta_norad_cat_id": 66906,
        "meta_element_set_no": 999,
        "meta_rev_at_epoch": 161,
        "meta_bstar": 0.00063717141,
        "meta_mean_motion_dot": 0.00036816,
        "meta_mean_motion_ddot": 0,
        "tle_line1": "1 66906U 98067XS  25346.72929150  .00036816  00000+0  63717-3 0  9992",
        "tle_line2": "2 66906  51.6293 142.4703 0003602 202.1444 157.9390 15.50562979  1615"
      },
      "geometry": {
        "type": "Point",
        "coordinates": [
          -129.75432937939033,
          51.50746048252502
        ]
      }
    },
    {
      "type": "Feature",
      "properties": {
        "norad_id": 66907,
        "name": "1998-067XT",
        "group": "stations",
        "lat": 46.13247735074027,
        "lon": -100.20301734143798,
        "alt_km": 406.97067136422265,
        "timestamp": "2025-12-14T03:55:51.571754+00:00",
        "meta_object_name": "1998-067XT",
        "meta_object_id": "1998-067XT",
        "meta_epoch": "2025-12-12T17:26:16.026432",
        "meta_mean_motion": 15.5143678,
        "meta_eccentricity": 0.00044769,
        "meta_inclination": 51.6298,
        "meta_ra_of_asc_node": 142.4529,
        "meta_arg_of_pericenter": 226.787,
        "meta_mean_anomaly": 133.2746,
        "meta_ephemeris_type": 0,
        "meta_classification_type": "U",
        "meta_norad_cat_id": 66907,
        "meta_element_set_no": 999,
        "meta_rev_at_epoch": 161,
        "meta_bstar": 0.0013978666,
        "meta_mean_motion_dot": 0.0008442,
        "meta_mean_motion_ddot": 0,
        "tle_line1": "1 66907U 98067XT  25346.72657438  .00084420  00000+0  13979-2 0  9998",
        "tle_line2": "2 66907  51.6298 142.4529 0004476 226.7870 133.2746 15.51436780  1615"
      },
      "geometry": {
        "type": "Point",
        "coordinates": [
          -100.20301734143798,
          46.13247735074027
        ]
      }
    },
    {
      "type": "Feature",
      "properties": {
        "norad_id": 66908,
        "name": "1998-067XU",
        "group": "stations",
        "lat": 45.02902420033772,
        "lon": -97.16989786387279,
        "alt_km": 406.64645559857126,
        "timestamp": "2025-12-14T03:55:51.571764+00:00",
        "meta_object_name": "1998-067XU",
        "meta_object_id": "1998-067XU",
        "meta_epoch": "2025-12-13T07:20:31.203744",
        "meta_mean_motion": 15.51634533,
        "meta_eccentricity": 0.00044658,
        "meta_inclination": 51.6298,
        "meta_ra_of_asc_node": 139.5715,
        "meta_arg_of_pericenter": 229.458,
        "meta_mean_anomaly": 130.6021,
        "meta_ephemeris_type": 0,
        "meta_classification_type": "U",
        "meta_norad_cat_id": 66908,
        "meta_element_set_no": 999,
        "meta_rev_at_epoch": 170,
        "meta_bstar": 0.0017363682,
        "meta_mean_motion_dot": 0.00106014,
        "meta_mean_motion_ddot": 0,
        "tle_line1": "1 66908U 98067XU  25347.30591671  .00106014  00000+0  17364-2 0  9996",
        "tle_line2": "2 66908  51.6298 139.5715 0004465 229.4580 130.6021 15.51634533  1709"
      },
      "geometry": {
        "type": "Point",
        "coordinates": [
          -97.16989786387279,
          45.02902420033772
        ]
      }
    }
  ]
}